{"type": "FeatureCollection", "features": [ {"type": "Feature", "properties": {"norad_id": 34304, "name": "COSMOS 2251 DEB", "group": "cosmos-2251-debris", "lat": 35.664691355200084, "lon": 107.58954483334432, "alt_km": 851.9285723509156, "timestamp": "2025-12-27T07:26:25.614517+00:00", "meta": {"OBJECT_NAME": "COSMOS 2251 DEB", "OBJECT_ID": "1993-036NA", "EPOCH": "2025-12-26T16:48:12.002688", "MEAN_MOTION": 14.37997771, "ECCENTRICITY": 0.01289226, "INCLINATION": 74.0136, "RA_OF_ASC_NODE": 96.8421, "ARG_OF_PERICENTER": 231.8358, "MEAN_ANOMALY": 249.2914, "EPHEMERIS_TYPE": 0, "CLASSIFICATION_TYPE": "U", "NORAD_CAT_ID": 34304, "ELEMENT_SET_NO": 999, "REV_AT_EPOCH": 87497, "BSTAR": 0.0017543982, "MEAN_MOTION_DOT": 5.819e-05, "MEAN_MOTION_DDOT": 0}, "tle": {"line1": "1 34304U 93036NA  25360.70013892  .00005819  00000+0  17544-2 0  9996", "line2": "2 34304  74.0136  96.8421 0128922 231.8358 249.2914 14.37997771874972"}}, "geometry": {"type": "Point", "coordinates": [107.58954483334432, 35.664691355200084]}}, {"type": "Feature", "properties": {"norad_id": 34307, "name": "COSMOS 2251 DEB", "group": "cosmos-2251-debris", "lat": -5.081884545272193, "lon": 111.1937103691019, "alt_km": 939.3498570811244, "timestamp": "2025-12-27T07:26:25.614528+00:00", "meta": {"OBJECT_NAME": "COSMOS 2251 DEB", "OBJECT_ID": "1993-036ND", "EPOCH": "2025-12-26T06:19:47.574912", "MEAN_MOTION": 13.54342626, "ECCENTRICITY": 0.0391752, "INCLINATION": 74.0541, "RA_OF_ASC_NODE": 291.4151, "ARG_OF_PERICENTER": 119.3704, "MEAN_ANOMALY": 2.3521, "EPHEMERIS_TYPE": 0, "CLASSIFICATION_TYPE": "U", "NORAD_CAT_ID": 34307, "ELEMENT_SET_NO": 999, "REV_AT_EPOCH": 83045, "BSTAR": 0.00079797, "MEAN_MOTION_DOT": 8.69e-06, "MEAN_MOTION_DDOT": 0}, "tle": {"line1": "1 34307U 93036ND  25360.26374508  .00000869  00000+0  79797-3 0  9993", "line2": "2 34307  74.0541 291.4151 0391752 119.3704   2.3521 13.54342626830454"}}, "geometry": {"type": "Point", "coordinates": [111.1937103691019, -5.081884545272193]}}, {"type": "Feature", "properties": {"norad_id": 34313, "name": "COSMOS 2251 DEB", "group": "cosmos-2251-debris", "lat": 27.33831969693157, "lon": -76.63617541225877, "alt_km": 491.92604886253866, "timestamp": "2025-12-27T07:26:25.614538+00:00", "meta": {"OBJECT_NAME": "COSMOS 2251 DEB", "OBJECT_ID": "1993-036NK", "EPOCH": "2025-12-26T04:29:26.748096", "MEAN_MOTION": 15.21524826, "ECCENTRICITY": 0.001212, "INCLINATION": 73.9711, "RA_OF_ASC_NODE": 277.1842, "ARG_OF_PERICENTER": 60.7811, "MEAN_ANOMALY": 299.4597, "EPHEMERIS_TYPE": 0, "CLASSIFICATION_TYPE": "U", "NORAD_CAT_ID": 34313, "ELEMENT_SET_NO": 999, "REV_AT_EPOCH": 89269, "BSTAR": 0.004272, "MEAN_MOTION_DOT": 0.00097673, "MEAN_MOTION_DDOT": 0}, "tle": {"line1": "1 34313U 93036NK  25360.18711514  .00097673  00000+0  42720-2 0  9997", "line2": "2 34313  73.9711 277.1842 0012120  60.7811 299.4597 15.21524826892699"}}, "geometry": {"type": "Point", "coordinates": [-76.63617541225877, 27.33831969693157]}}, {"type": "Feature", "properties": {"norad_id": 34314, "name": "COSMOS 2251 DEB", "group": "cosmos-2251-debris", "lat": 54.692464948220014, "lon": -53.72913187821282, "alt_km": 765.8707802014287, "timestamp": "2025-12-27T07:26:25.614548+00:00", "meta": {"OBJECT_NAME": "COSMOS 2251 DEB", "OBJECT_ID": "1993-036NL", "EPOCH": "2025-12-26T21:18:01.327104", "MEAN_MOTION": 14.17460589, "ECCENTRICITY": 0.01036006, "INCLINATION": 74.0062, "RA_OF_ASC_NODE": 283.1357, "ARG_OF_PERICENTER": 25.4791, "MEAN_ANOMALY": 36.899, "EPHEMERIS_TYPE": 0, "CLASSIFICATION_TYPE": "U", "NORAD_CAT_ID": 34314, "ELEMENT_SET_NO": 999, "REV_AT_EPOCH": 86858, "BSTAR": 0.00063700799, "MEAN_MOTION_DOT": 1.336e-05, "MEAN_MOTION_DDOT": 0}, "tle": {"line1": "1 34314U 93036NL  25360.88751536  .00001336  00000+0  63701-3 0  9997", "line2": "2 34314  74.0062 283.1357 0103600  25.4791  36.8990 14.17460589868588"}}, "geometry": {"type": "Point", "coordinates": [-53.72913187821282, 54.692464948220014]}}, {"type": "Feature", "properties": {"norad_id": 34316, "name": "COSMOS 2251 DEB", "group": "cosmos-2251-debris", "lat": -18.147043799642198, "lon": 133.06542070968698, "alt_km": 601.7161499317426, "timestamp": "2025-12-27T07:26:25.614558+00:00", "meta": {"OBJECT_NAME": "COSMOS 2251 DEB", "OBJECT_ID": "1993-036NN", "EPOCH": "2025-12-26T22:30:29.733696", "MEAN_MOTION": 14.92304883, "ECCENTRICITY": 0.00092012, "INCLINATION": 74.0653, "RA_OF_ASC_NODE": 308.4379, "ARG_OF_PERICENTER": 29.6439, "MEAN_ANOMALY": 330.5264, "EPHEMERIS_TYPE": 0, "CLASSIFICATION_TYPE": "U", "NORAD_CAT_ID": 34316, "ELEMENT_SET_NO": 999, "REV_AT_EPOCH": 89421, "BSTAR": 0.0023116776, "MEAN_MOTION_DOT": 0.00023681, "MEAN_MOTION_DDOT": 0}, "tle": {"line1": "1 34316U 93036NN  25360.93784414  .00023681  00000+0  23117-2 0  9999", "line2": "2 34316  74.0653 308.4379 0009201  29.6439 330.5264 14.92304883894212"}}, "geometry": {"type": "Point", "coordinates": [133.06542070968698, -18.147043799642198]}}, {"type": "Feature", "properties": {"norad_id": 34317, "name": "COSMOS 2251 DEB", "group": "cosmos-2251-debris", "lat": 41.734926049124134, "lon": 176.86545732745722, "alt_km": 1194.1909821305699, "timestamp": "2025-12-27T07:26:25.614568+00:00", "meta": {"OBJECT_NAME": "COSMOS 2251 DEB", "OBJECT_ID": "1993-036NP", "EPOCH": "2025-12-26T12:11:02.416704", "MEAN_MOTION": 13.65140472, "ECCENTRICITY": 0.0337029, "INCLINATION": 73.9242, "RA_OF_ASC_NODE": 13.0915, "ARG_OF_PERICENTER": 359.7045, "MEAN_ANOMALY": 152.0356, "EPHEMERIS_TYPE": 0, "CLASSIFICATION_TYPE": "U", "NORAD_CAT_ID": 34317, "ELEMENT_SET_NO": 999, "REV_AT_EPOCH": 83807, "BSTAR": 0.00071407, "MEAN_MOTION_DOT": 8.3e-06, "MEAN_MOTION_DDOT": 0}, "tle": {"line1": "1 34317U 93036NP  25360.50766686  .00000830  00000+0  71407-3 0  9991", "line2": "2 34317  73.9242  13.0915 0337029 359.7045 152.0356 13.65140472838074"}}, "geometry": {"type": "Point", "coordinates": [176.86545732745722, 41.734926049124134]}}, {"type": "Feature", "properties": {"norad_id": 34321, "name": "COSMOS 2251 DEB", "group": "cosmos-2251-debris", "lat": -48.453638587206996, "lon": 110.13168486423513, "alt_km": 724.6168299940682, "timestamp": "2025-12-27T07:26:25.614578+00:00", "meta": {"OBJECT_NAME": "COSMOS 2251 DEB", "OBJECT_ID": "1993-036NT", "EPOCH": "2025-12-26T12:09:17.027712", "MEAN_MOTION": 14.50115396, "ECCENTRICITY": 0.0016053, "INCLINATION": 74.0288, "RA_OF_ASC_NODE": 130.4961, "ARG_OF_PERICENTER": 259.328, "MEAN_ANOMALY": 176.2079, "EPHEMERIS_TYPE": 0, "CLASSIFICATION_TYPE": "U", "NORAD_CAT_ID": 34321, "ELEMENT_SET_NO": 999, "REV_AT_EPOCH": 88686, "BSTAR": 0.00063866, "MEAN_MOTION_DOT": 2.456e-05, "MEAN_MOTION_DDOT": 0}, "tle": {"line1": "1 34321U 93036NT  25360.50644708  .00002456  00000+0  63866-3 0  9992", "line2": "2 34321  74.0288 130.4961 0016053 259.3280 176.2079 14.50115396886865"}}, "geometry": {"type": "Point", "coordinates": [110.13168486423513, -48.453638587206996]}}, {"type": "Feature", "properties": {"norad_id": 34323, "name": "COSMOS 2251 DEB", "group": "cosmos-2251-debris", "lat": 7.563082783837069, "lon": -87.67875147540346, "alt_km": 615.1724204155962, "timestamp": "2025-12-27T07:26:25.614588+00:00", "meta": {"OBJECT_NAME": "COSMOS 2251 DEB", "OBJECT_ID": "1993-036NV", "EPOCH": "2025-12-26T12:49:36.204384", "MEAN_MOTION": 14.74845402, "ECCENTRICITY": 0.0057006, "INCLINATION": 73.9524, "RA_OF_ASC_NODE": 96.0339, "ARG_OF_PERICENTER": 136.6088, "MEAN_ANOMALY": 238.8308, "EPHEMERIS_TYPE": 0, "CLASSIFICATION_TYPE": "U", "NORAD_CAT_ID": 34323, "ELEMENT_SET_NO": 999, "REV_AT_EPOCH": 88643, "BSTAR": 0.0021055, "MEAN_MOTION_DOT": 0.00014487, "MEAN_MOTION_DDOT": 0}, "tle": {"line1": "1 34323U 93036NV  25360.53444681  .00014487  00000+0  21055-2 0  9995", "line2": "2 34323  73.9524  96.0339 0057006 136.6088 238.8308 14.74845402886437"}}, "geometry": {"type": "Point", "coordinates": [-87.67875147540346, 7.563082783837069]}}, {"type": "Feature", "properties": {"norad_id": 34325, "name": "COSMOS 2251 DEB", "group": "cosmos-2251-debris", "lat": -44.63787945277939, "lon": 150.53031782459578, "alt_km": 974.4183281270425, "timestamp": "2025-12-27T07:26:25.614598+00:00", "meta": {"OBJECT_NAME": "COSMOS 2251 DEB", "OBJECT_ID": "1993-036NX", "EPOCH": "2025-12-26T22:08:23.930016", "MEAN_MOTION": 14.04568575, "ECCENTRICITY": 0.0191234, "INCLINATION": 73.8709, "RA_OF_ASC_NODE": 167.8156, "ARG_OF_PERICENTER": 182.5258, "MEAN_ANOMALY": 330.1691, "EPHEMERIS_TYPE": 0, "CLASSIFICATION_TYPE": "U", "NORAD_CAT_ID": 34325, "ELEMENT_SET_NO": 999, "REV_AT_EPOCH": 85714, "BSTAR": 0.0024997528, "MEAN_MOTION_DOT": 4.678e-05, "MEAN_MOTION_DDOT": 0}, "tle": {"line1": "1 34325U 93036NX  25360.92249919  .00004678  00000+0  24998-2 0  9997", "line2": "2 34325  73.8709 167.8156 0191234 182.5258 330.1691 14.04568575857141"}}, "geometry": {"type": "Point", "coordinates": [150.53031782459578, -44.63787945277939]}}, {"type": "Feature", "properties": {"norad_id": 34327, "name": "COSMOS 2251 DEB", "group": "cosmos-2251-debris", "lat": -65.49476618669482, "lon": 1.7157653096888779, "alt_km": 596.3416907738192, "timestamp": "2025-12-27T07:26:25.614608+00:00", "meta": {"OBJECT_NAME": "COSMOS 2251 DEB", "OBJECT_ID": "1993-036NZ", "EPOCH": "2025-12-26T21:11:49.857216", "MEAN_MOTION": 14.89512219, "ECCENTRICITY": 0.00338053, "INCLINATION": 73.994, "RA_OF_ASC_NODE": 143.5408, "ARG_OF_PERICENTER": 317.3568, "MEAN_ANOMALY": 166.4888, "EPHEMERIS_TYPE": 0, "CLASSIFICATION_TYPE": "U", "NORAD_CAT_ID": 34327, "ELEMENT_SET_NO": 999, "REV_AT_EPOCH": 89718, "BSTAR": 0.0016821, "MEAN_MOTION_DOT": 0.00016201, "MEAN_MOTION_DDOT": 0}, "tle": {"line1": "1 34327U 93036NZ  25360.88321594  .00016201  00000+0  16821-2 0  9995", "line2": "2 34327  73.9940 143.5408 0033805 317.3568 166.4888 14.89512219897186"}}, "geometry": {"type": "Point", "coordinates": [1.7157653096888779, -65.49476618669482]}}]}